{"type": "FeatureCollection", "features": [ {"type": "Feature", "properties": {"norad_id": 34077, "name": "IRIDIUM 33 DEB", "group": "iridium-33-debris", "lat": 86.38194017202683, "lon": 137.69018366796004, "alt_km": 669.3322336658084, "timestamp": "2025-12-23T16:57:12.739014+00:00", "meta": {"OBJECT_NAME": "IRIDIUM 33 DEB", "OBJECT_ID": "1997-051CL", "EPOCH": "2025-12-22T09:27:37.329984", "MEAN_MOTION": 14.64940807, "ECCENTRICITY": 0.00090827, "INCLINATION": 86.3849, "RA_OF_ASC_NODE": 47.2542, "ARG_OF_PERICENTER": 8.0354, "MEAN_ANOMALY": 6.0314, "EPHEMERIS_TYPE": 0, "CLASSIFICATION_TYPE": "U", "NORAD_CAT_ID": 34077, "ELEMENT_SET_NO": 999, "REV_AT_EPOCH": 88474, "BSTAR": 0.00142765, "MEAN_MOTION_DOT": 7.665e-05, "MEAN_MOTION_DDOT": 0}, "tle": {"line1": "1 34077U 97051CL  25356.39418206  .00007665  00000+0  14276-2 0  9992", "line2": "2 34077  86.3849  47.2542 0009082   8.0354   6.0314 14.64940807884742"}}, "geometry": {"type": "Point", "coordinates": [137.69018366796004, 86.38194017202683]}}, {"type": "Feature", "properties": {"norad_id": 34079, "name": "IRIDIUM 33 DEB", "group": "iridium-33-debris", "lat": 77.81509902086033, "lon": 166.61081790883674, "alt_km": 612.2987728904836, "timestamp": "2025-12-23T16:57:12.739025+00:00", "meta": {"OBJECT_NAME": "IRIDIUM 33 DEB", "OBJECT_ID": "1997-051CN", "EPOCH": "2025-12-22T08:25:01.081344", "MEAN_MOTION": 14.83759733, "ECCENTRICITY": 0.00044564, "INCLINATION": 86.3771, "RA_OF_ASC_NODE": 4.2903, "ARG_OF_PERICENTER": 333.0495, "MEAN_ANOMALY": 91.7488, "EPHEMERIS_TYPE": 0, "CLASSIFICATION_TYPE": "U", "NORAD_CAT_ID": 34079, "ELEMENT_SET_NO": 999, "REV_AT_EPOCH": 89120, "BSTAR": 0.001875642, "MEAN_MOTION_DOT": 0.00015565, "MEAN_MOTION_DDOT": 0}, "tle": {"line1": "1 34079U 97051CN  25356.35070696  .00015565  00000+0  18756-2 0  9992", "line2": "2 34079  86.3771   4.2903 0004456 333.0495  91.7488 14.83759733891208"}}, "geometry": {"type": "Point", "coordinates": [166.61081790883674, 77.81509902086033]}}, {"type": "Feature", "properties": {"norad_id": 34088, "name": "IRIDIUM 33 DEB", "group": "iridium-33-debris", "lat": 33.12420121556137, "lon": -156.68268747010663, "alt_km": 585.5186107135041, "timestamp": "2025-12-23T16:57:12.739037+00:00", "meta": {"OBJECT_NAME": "IRIDIUM 33 DEB", "OBJECT_ID": "1997-051CX", "EPOCH": "2025-12-23T01:54:32.264640", "MEAN_MOTION": 14.9182131, "ECCENTRICITY": 0.0006827, "INCLINATION": 86.3834, "RA_OF_ASC_NODE": 25.9708, "ARG_OF_PERICENTER": 144.041, "MEAN_ANOMALY": 238.2905, "EPHEMERIS_TYPE": 0, "CLASSIFICATION_TYPE": "U", "NORAD_CAT_ID": 34088, "ELEMENT_SET_NO": 999, "REV_AT_EPOCH": 88896, "BSTAR": 0.0024729077, "MEAN_MOTION_DOT": 0.00025042, "MEAN_MOTION_DDOT": 0}, "tle": {"line1": "1 34088U 97051CX  25357.07954010  .00025042  00000+0  24729-2 0  9991", "line2": "2 34088  86.3834  25.9708 0006827 144.0410 238.2905 14.91821310888963"}}, "geometry": {"type": "Point", "coordinates": [-156.68268747010663, 33.12420121556137]}}, {"type": "Feature", "properties": {"norad_id": 34091, "name": "IRIDIUM 33 DEB", "group": "iridium-33-debris", "lat": -38.34148150016285, "lon": 58.907311744073326, "alt_km": 618.5478730141531, "timestamp": "2025-12-23T16:57:12.739048+00:00", "meta": {"OBJECT_NAME": "IRIDIUM 33 DEB", "OBJECT_ID": "1997-051DA", "EPOCH": "2025-12-23T04:10:02.837280", "MEAN_MOTION": 14.82549228, "ECCENTRICITY": 0.00342004, "INCLINATION": 86.3407, "RA_OF_ASC_NODE": 62.053, "ARG_OF_PERICENTER": 255.8557, "MEAN_ANOMALY": 103.8864, "EPHEMERIS_TYPE": 0, "CLASSIFICATION_TYPE": "U", "NORAD_CAT_ID": 34091, "ELEMENT_SET_NO": 999, "REV_AT_EPOCH": 88021, "BSTAR": 0.0049422357, "MEAN_MOTION_DOT": 0.00040333, "MEAN_MOTION_DDOT": 0}, "tle": {"line1": "1 34091U 97051DA  25357.17364395  .00040333  00000+0  49422-2 0  9994", "line2": "2 34091  86.3407  62.0530 0034200 255.8557 103.8864 14.82549228880213"}}, "geometry": {"type": "Point", "coordinates": [58.907311744073326, -38.34148150016285]}}, {"type": "Feature", "properties": {"norad_id": 34097, "name": "IRIDIUM 33 DEB", "group": "iridium-33-debris", "lat": 38.49898305308301, "lon": 173.53613971126669, "alt_km": 830.9032436866364, "timestamp": "2025-12-23T16:57:12.739058+00:00", "meta": {"OBJECT_NAME": "IRIDIUM 33 DEB", "OBJECT_ID": "1997-051DG", "EPOCH": "2025-12-22T10:10:07.648896", "MEAN_MOTION": 14.34850685, "ECCENTRICITY": 0.00816282, "INCLINATION": 86.1999, "RA_OF_ASC_NODE": 357.1326, "ARG_OF_PERICENTER": 330.4879, "MEAN_ANOMALY": 29.172, "EPHEMERIS_TYPE": 0, "CLASSIFICATION_TYPE": "U", "NORAD_CAT_ID": 34097, "ELEMENT_SET_NO": 999, "REV_AT_EPOCH": 87258, "BSTAR": 0.0014468202, "MEAN_MOTION_DOT": 4.282e-05, "MEAN_MOTION_DDOT": 0}, "tle": {"line1": "1 34097U 97051DG  25356.42369964  .00004282  00000+0  14468-2 0  9999", "line2": "2 34097  86.1999 357.1326 0081628 330.4879  29.1720 14.34850685872588"}}, "geometry": {"type": "Point", "coordinates": [173.53613971126669, 38.49898305308301]}}, {"type": "Feature", "properties": {"norad_id": 34145, "name": "IRIDIUM 33 DEB", "group": "iridium-33-debris", "lat": -14.269326883553912, "lon": -33.323371516954055, "alt_km": 743.6999411029128, "timestamp": "2025-12-23T16:57:12.739070+00:00", "meta": {"OBJECT_NAME": "IRIDIUM 33 DEB", "OBJECT_ID": "1997-051DY", "EPOCH": "2025-12-23T05:21:52.043328", "MEAN_MOTION": 14.4235986, "ECCENTRICITY": 0.00556029, "INCLINATION": 86.2126, "RA_OF_ASC_NODE": 327.8569, "ARG_OF_PERICENTER": 60.5255, "MEAN_ANOMALY": 300.1476, "EPHEMERIS_TYPE": 0, "CLASSIFICATION_TYPE": "U", "NORAD_CAT_ID": 34145, "ELEMENT_SET_NO": 999, "REV_AT_EPOCH": 87789, "BSTAR": 0.0011656692, "MEAN_MOTION_DOT": 3.943e-05, "MEAN_MOTION_DDOT": 0}, "tle": {"line1": "1 34145U 97051DY  25357.22351902  .00003943  00000+0  11657-2 0  9995", "line2": "2 34145  86.2126 327.8569 0055602  60.5255 300.1476 14.42359860877897"}}, "geometry": {"type": "Point", "coordinates": [-33.323371516954055, -14.269326883553912]}}, {"type": "Feature", "properties": {"norad_id": 34146, "name": "IRIDIUM 33 DEB", "group": "iridium-33-debris", "lat": -70.42700718082904, "lon": 175.48777142404757, "alt_km": 728.4577257010724, "timestamp": "2025-12-23T16:57:12.739080+00:00", "meta": {"OBJECT_NAME": "IRIDIUM 33 DEB", "OBJECT_ID": "1997-051DZ", "EPOCH": "2025-12-23T05:55:17.173920", "MEAN_MOTION": 14.49112641, "ECCENTRICITY": 0.00266651, "INCLINATION": 86.2838, "RA_OF_ASC_NODE": 345.1581, "ARG_OF_PERICENTER": 185.2875, "MEAN_ANOMALY": 188.6764, "EPHEMERIS_TYPE": 0, "CLASSIFICATION_TYPE": "U", "NORAD_CAT_ID": 34146, "ELEMENT_SET_NO": 999, "REV_AT_EPOCH": 88259, "BSTAR": 0.00083812732, "MEAN_MOTION_DOT": 3.219e-05, "MEAN_MOTION_DDOT": 0}, "tle": {"line1": "1 34146U 97051DZ  25357.24672655  .00003219  00000+0  83813-3 0  9999", "line2": "2 34146  86.2838 345.1581 0026665 185.2875 188.6764 14.49112641882598"}}, "geometry": {"type": "Point", "coordinates": [175.48777142404757, -70.42700718082904]}}, {"type": "Feature", "properties": {"norad_id": 34159, "name": "IRIDIUM 33 DEB", "group": "iridium-33-debris", "lat": -86.01447693262016, "lon": -70.04491092478634, "alt_km": 753.2296106385729, "timestamp": "2025-12-23T16:57:12.739091+00:00", "meta": {"OBJECT_NAME": "IRIDIUM 33 DEB", "OBJECT_ID": "1997-051EN", "EPOCH": "2025-12-23T04:01:20.911296", "MEAN_MOTION": 14.38517801, "ECCENTRICITY": 0.00261189, "INCLINATION": 86.3495, "RA_OF_ASC_NODE": 43.7945, "ARG_OF_PERICENTER": 250.9907, "MEAN_ANOMALY": 108.8461, "EPHEMERIS_TYPE": 0, "CLASSIFICATION_TYPE": "U", "NORAD_CAT_ID": 34159, "ELEMENT_SET_NO": 999, "REV_AT_EPOCH": 88109, "BSTAR": 0.00035267633, "MEAN_MOTION_DOT": 1.101e-05, "MEAN_MOTION_DDOT": 0}, "tle": {"line1": "1 34159U 97051EN  25357.16760314  .00001101  00000+0  35268-3 0  9993", "line2": "2 34159  86.3495  43.7945 0026118 250.9907 108.8461 14.38517801881093"}}, "geometry": {"type": "Point", "coordinates": [-70.04491092478634, -86.01447693262016]}}, {"type": "Feature", "properties": {"norad_id": 34350, "name": "IRIDIUM 33 DEB", "group": "iridium-33-debris", "lat": -29.101370329250887, "lon": -179.90288078203764, "alt_km": 751.6679332770327, "timestamp": "2025-12-23T16:57:12.739101+00:00", "meta": {"OBJECT_NAME": "IRIDIUM 33 DEB", "OBJECT_ID": "1997-051ES", "EPOCH": "2025-12-23T01:18:23.719680", "MEAN_MOTION": 14.45409977, "ECCENTRICITY": 0.00234549, "INCLINATION": 86.3272, "RA_OF_ASC_NODE": 358.331, "ARG_OF_PERICENTER": 103.6059, "MEAN_ANOMALY": 314.9191, "EPHEMERIS_TYPE": 0, "CLASSIFICATION_TYPE": "U", "NORAD_CAT_ID": 34350, "ELEMENT_SET_NO": 999, "REV_AT_EPOCH": 88442, "BSTAR": 0.00031237474, "MEAN_MOTION_DOT": 1.122e-05, "MEAN_MOTION_DDOT": 0}, "tle": {"line1": "1 34350U 97051ES  25357.05444120  .00001122  00000+0  31237-3 0  9993", "line2": "2 34350  86.3272 358.3310 0023454 103.6059 314.9191 14.45409977884424"}}, "geometry": {"type": "Point", "coordinates": [-179.90288078203764, -29.101370329250887]}}, {"type": "Feature", "properties": {"norad_id": 34366, "name": "IRIDIUM 33 DEB", "group": "iridium-33-debris", "lat": 19.885361429681584, "lon": -136.77300760005647, "alt_km": 702.8800947766413, "timestamp": "2025-12-23T16:57:12.739112+00:00", "meta": {"OBJECT_NAME": "IRIDIUM 33 DEB", "OBJECT_ID": "1997-051FJ", "EPOCH": "2025-12-22T10:47:10.372704", "MEAN_MOTION": 14.54128755, "ECCENTRICITY": 0.00230356, "INCLINATION": 86.3686, "RA_OF_ASC_NODE": 45.09, "ARG_OF_PERICENTER": 109.4758, "MEAN_ANOMALY": 314.4093, "EPHEMERIS_TYPE": 0, "CLASSIFICATION_TYPE": "U", "NORAD_CAT_ID": 34366, "ELEMENT_SET_NO": 999, "REV_AT_EPOCH": 88323, "BSTAR": 0.000894432, "MEAN_MOTION_DOT": 3.813e-05, "MEAN_MOTION_DDOT": 0}, "tle": {"line1": "1 34366U 97051FJ  25356.44942561  .00003813  00000+0  89443-3 0  9995", "line2": "2 34366  86.3686  45.0900 0023035 109.4758 314.4093 14.54128755883236"}}, "geometry": {"type": "Point", "coordinates": [-136.77300760005647, 19.885361429681584]}}]}